[{"OBJECT_NAME":"STARLINK-5602","OBJECT_ID":"2023-028C","EPOCH":"2026-03-09T20:58:36.464160","MEAN_MOTION":14.98330331,"ECCENTRICITY":0.00030743,"INCLINATION":69.9994,"RA_OF_ASC_NODE":244.1559,"ARG_OF_PERICENTER":267.2991,"MEAN_ANOMALY":92.7816,"EPHEMERIS_TYPE":0,"CLASSIFICATION_TYPE":"U","NORAD_CAT_ID":55743,"ELEMENT_SET_NO":999,"REV_AT_EPOCH":16606,"BSTAR":8.849681e-6,"MEAN_MOTION_DOT":1.3e-7,"MEAN_MOTION_DDOT":0},{"OBJECT_NAME":"COSMOS 2535 DEB","OBJECT_ID":"2019-039P","EPOCH":"2026-02-22T05:58:19.108128","MEAN_MOTION":14.89509191,"ECCENTRICITY":0.00395597,"INCLINATION":97.6774,"RA_OF_ASC_NODE":55.8748,"ARG_OF_PERICENTER":30.9665,"MEAN_ANOMALY":329.3874,"EPHEMERIS_TYPE":0,"CLASSIFICATION_TYPE":"U","NORAD_CAT_ID":44712,"ELEMENT_SET_NO":999,"REV_AT_EPOCH":34537,"BSTAR":0.00038254743,"MEAN_MOTION_DOT":3.642e-5,"MEAN_MOTION_DDOT":0}]
